[{"OBJECT_NAME":"NINGXIA-1 5","OBJECT_ID":"2019-076E","EPOCH":"2026-03-09T22:23:55.574304","MEAN_MOTION":14.02008199,"ECCENTRICITY":0.00108539,"INCLINATION":45.0049,"RA_OF_ASC_NODE":262.7512,"ARG_OF_PERICENTER":33.6952,"MEAN_ANOMALY":326.457,"EPHEMERIS_TYPE":0,"CLASSIFICATION_TYPE":"U","NORAD_CAT_ID":44783,"ELEMENT_SET_NO":999,"REV_AT_EPOCH":32384,"BSTAR":-4.87687e-6,"MEAN_MOTION_DOT":-1.37e-6,"MEAN_MOTION_DDOT":0},{"OBJECT_NAME":"CZ-4B DEB","OBJECT_ID":"2008-026D","EPOCH":"2026-03-08T20:46:59.256768","MEAN_MOTION":13.7785114,"ECCENTRICITY":0.02403933,"INCLINATION":98.7091,"RA_OF_ASC_NODE":75.3531,"ARG_OF_PERICENTER":123.98,"MEAN_ANOMALY":355.2733,"EPHEMERIS_TYPE":0,"CLASSIFICATION_TYPE":"U","NORAD_CAT_ID":37572,"ELEMENT_SET_NO":999,"REV_AT_EPOCH":88159,"BSTAR":0.00044038393,"MEAN_MOTION_DOT":5.09e-6,"MEAN_MOTION_DDOT":0}]
